METEOR-M2 3             
1 57166U 23091A   24277.18875906  .00000267  00000+0  13562-3 0  9990
2 57166  98.7011 330.8341 0004260 162.2639 197.8689 14.23931809 65993
METEOR-M2 3 DEB         
1 60448U 23091BC  24276.39384495  .00001807  00000+0  80199-3 0  9998
2 60448  98.7020 330.1054 0004425 163.5008 196.6316 14.24254475 30142
